[{"OBJECT_NAME":"ONEWEB-0273","OBJECT_ID":"2021-060AA","EPOCH":"2025-12-20T18:34:59.867328","MEAN_MOTION":13.16592131,"ECCENTRICITY":0.00017269,"INCLINATION":87.9045,"RA_OF_ASC_NODE":264.3075,"ARG_OF_PERICENTER":68.8749,"MEAN_ANOMALY":291.2567,"EPHEMERIS_TYPE":0,"CLASSIFICATION_TYPE":"U","NORAD_CAT_ID":48991,"ELEMENT_SET_NO":999,"REV_AT_EPOCH":21611,"BSTAR":4.7309935e-5,"MEAN_MOTION_DOT":3.1e-7,"MEAN_MOTION_DDOT":0},{"OBJECT_NAME":"ONEWEB-0274","OBJECT_ID":"2021-060AB","EPOCH":"2025-12-21T04:18:39.572352","MEAN_MOTION":13.16596693,"ECCENTRICITY":0.0002004,"INCLINATION":87.9034,"RA_OF_ASC_NODE":264.2485,"ARG_OF_PERICENTER":78.1674,"MEAN_ANOMALY":281.9682,"EPHEMERIS_TYPE":0,"CLASSIFICATION_TYPE":"U","NORAD_CAT_ID":48992,"ELEMENT_SET_NO":999,"REV_AT_EPOCH":21620,"BSTAR":0.0002057,"MEAN_MOTION_DOT":9.1e-7,"MEAN_MOTION_DDOT":0},{"OBJECT_NAME":"ONEWEB-0275","OBJECT_ID":"2021-060AC","EPOCH":"2025-12-21T04:02:42.026208","MEAN_MOTION":13.16596411,"ECCENTRICITY":0.0001786,"INCLINATION":87.9048,"RA_OF_ASC_NODE":264.2222,"ARG_OF_PERICENTER":72.286,"MEAN_ANOMALY":287.8465,"EPHEMERIS_TYPE":0,"CLASSIFICATION_TYPE":"U","NORAD_CAT_ID":48993,"ELEMENT_SET_NO":999,"REV_AT_EPOCH":21613,"BSTAR":-0.00010973,"MEAN_MOTION_DOT":-2.9e-7,"MEAN_MOTION_DDOT":0},{"OBJECT_NAME":"ONEWEB-0276","OBJECT_ID":"2021-060AD","EPOCH":"2025-12-20T17:53:57.452640","MEAN_MOTION":13.16596516,"ECCENTRICITY":0.00015575,"INCLINATION":87.9051,"RA_OF_ASC_NODE":264.3057,"ARG_OF_PERICENTER":67.0811,"MEAN_ANOMALY":293.0485,"EPHEMERIS_TYPE":0,"CLASSIFICATION_TYPE":"U","NORAD_CAT_ID":48994,"ELEMENT_SET_NO":999,"REV_AT_EPOCH":21609,"BSTAR":0.00025997114,"MEAN_MOTION_DOT":1.12e-6,"MEAN_MOTION_DDOT":0},{"OBJECT_NAME":"ONEWEB-0277","OBJECT_ID":"2021-060AE","EPOCH":"2025-12-21T03:19:23.383776","MEAN_MOTION":13.16592482,"ECCENTRICITY":0.0001732,"INCLINATION":87.904,"RA_OF_ASC_NODE":264.2511,"ARG_OF_PERICENTER":72.5174,"MEAN_ANOMALY":287.6146,"EPHEMERIS_TYPE":0,"CLASSIFICATION_TYPE":"U","NORAD_CAT_ID":48995,"ELEMENT_SET_NO":999,"REV_AT_EPOCH":21613,"BSTAR":0.00022998,"MEAN_MOTION_DOT":1.01e-6,"MEAN_MOTION_DDOT":0},{"OBJECT_NAME":"ONEWEB-0278","OBJECT_ID":"2021-060AF","EPOCH":"2025-12-21T03:05:41.491680","MEAN_MOTION":13.16594089,"ECCENTRICITY":0.0001428,"INCLINATION":87.9049,"RA_OF_ASC_NODE":264.2261,"ARG_OF_PERICENTER":76.4039,"MEAN_ANOMALY":283.7251,"EPHEMERIS_TYPE":0,"CLASSIFICATION_TYPE":"U","NORAD_CAT_ID":48996,"ELEMENT_SET_NO":999,"REV_AT_EPOCH":21626,"BSTAR":3.0703e-5,"MEAN_MOTION_DOT":2.5e-7,"MEAN_MOTION_DDOT":0},{"OBJECT_NAME":"ONEWEB-0279","OBJECT_ID":"2021-060AG","EPOCH":"2025-12-20T23:38:14.720640","MEAN_MOTION":13.1659652,"ECCENTRICITY":0.0001937,"INCLINATION":87.9053,"RA_OF_ASC_NODE":264.2528,"ARG_OF_PERICENTER":68.4891,"MEAN_ANOMALY":291.6447,"EPHEMERIS_TYPE":0,"CLASSIFICATION_TYPE":"U","NORAD_CAT_ID":48997,"ELEMENT_SET_NO":999,"REV_AT_EPOCH":21617,"BSTAR":0.00019174,"MEAN_MOTION_DOT":8.6e-7,"MEAN_MOTION_DDOT":0},{"OBJECT_NAME":"ONEWEB-0280","OBJECT_ID":"2021-060AH","EPOCH":"2025-12-21T03:38:46.103136","MEAN_MOTION":13.16594588,"ECCENTRICITY":0.0001482,"INCLINATION":87.9048,"RA_OF_ASC_NODE":264.2256,"ARG_OF_PERICENTER":63.2946,"MEAN_ANOMALY":296.8336,"EPHEMERIS_TYPE":0,"CLASSIFICATION_TYPE":"U","NORAD_CAT_ID":48998,"ELEMENT_SET_NO":999,"REV_AT_EPOCH":21613,"BSTAR":0.0001625,"MEAN_MOTION_DOT":7.5e-7,"MEAN_MOTION_DDOT":0},{"OBJECT_NAME":"ONEWEB-0281","OBJECT_ID":"2021-060AJ","EPOCH":"2025-12-21T00:07:52.158720","MEAN_MOTION":13.16592105,"ECCENTRICITY":0.0001792,"INCLINATION":87.9048,"RA_OF_ASC_NODE":264.2499,"ARG_OF_PERICENTER":77.0914,"MEAN_ANOMALY":283.0417,"EPHEMERIS_TYPE":0,"CLASSIFICATION_TYPE":"U","NORAD_CAT_ID":48999,"ELEMENT_SET_NO":999,"REV_AT_EPOCH":21618,"BSTAR":-0.00012344,"MEAN_MOTION_DOT":-3.4e-7,"MEAN_MOTION_DDOT":0},{"OBJECT_NAME":"ONEWEB-0282","OBJECT_ID":"2021-060AK","EPOCH":"2025-12-21T04:30:02.719008","MEAN_MOTION":13.1659654,"ECCENTRICITY":0.0001674,"INCLINATION":87.9042,"RA_OF_ASC_NODE":264.2243,"ARG_OF_PERICENTER":68.295,"MEAN_ANOMALY":291.8358,"EPHEMERIS_TYPE":0,"CLASSIFICATION_TYPE":"U","NORAD_CAT_ID":49000,"ELEMENT_SET_NO":999,"REV_AT_EPOCH":21618,"BSTAR":3.6031e-5,"MEAN_MOTION_DOT":2.7e-7,"MEAN_MOTION_DDOT":0},{"OBJECT_NAME":"ONEWEB-0283","OBJECT_ID":"2021-060AL","EPOCH":"2025-12-21T04:14:06.139680","MEAN_MOTION":13.16593275,"ECCENTRICITY":0.0001863,"INCLINATION":87.9047,"RA_OF_ASC_NODE":264.2268,"ARG_OF_PERICENTER":71.2161,"MEAN_ANOMALY":288.9171,"EPHEMERIS_TYPE":0,"CLASSIFICATION_TYPE":"U","NORAD_CAT_ID":49001,"ELEMENT_SET_NO":999,"REV_AT_EPOCH":21619,"BSTAR":0.00036497,"MEAN_MOTION_DOT":1.52e-6,"MEAN_MOTION_DDOT":0},{"OBJECT_NAME":"ONEWEB-0284","OBJECT_ID":"2021-060AM","EPOCH":"2025-12-21T04:04:58.234944","MEAN_MOTION":13.16597045,"ECCENTRICITY":0.0001331,"INCLINATION":87.9051,"RA_OF_ASC_NODE":264.2173,"ARG_OF_PERICENTER":66.187,"MEAN_ANOMALY":293.9401,"EPHEMERIS_TYPE":0,"CLASSIFICATION_TYPE":"U","NORAD_CAT_ID":49002,"ELEMENT_SET_NO":999,"REV_AT_EPOCH":21617,"BSTAR":-0.00013095,"MEAN_MOTION_DOT":-3.7e-7,"MEAN_MOTION_DDOT":0},{"OBJECT_NAME":"ONEWEB-0285","OBJECT_ID":"2021-075A","EPOCH":"2025-12-21T01:05:58.888608","MEAN_MOTION":13.12541507,"ECCENTRICITY":0.0001693,"INCLINATION":87.8935,"RA_OF_ASC_NODE":26.0432,"ARG_OF_PERICENTER":94.4763,"MEAN_ANOMALY":265.6559,"EPHEMERIS_TYPE":0,"CLASSIFICATION_TYPE":"U","NORAD_CAT_ID":49075,"ELEMENT_SET_NO":999,"REV_AT_EPOCH":21184,"BSTAR":-0.0010041,"MEAN_MOTION_DOT":-3.49e-6,"MEAN_MOTION_DDOT":0},{"OBJECT_NAME":"ONEWEB-0286","OBJECT_ID":"2021-075B","EPOCH":"2025-12-21T02:30:53.923392","MEAN_MOTION":13.12421539,"ECCENTRICITY":0.0001797,"INCLINATION":87.8928,"RA_OF_ASC_NODE":26.0638,"ARG_OF_PERICENTER":101.5425,"MEAN_ANOMALY":258.5906,"EPHEMERIS_TYPE":0,"CLASSIFICATION_TYPE":"U","NORAD_CAT_ID":49076,"ELEMENT_SET_NO":999,"REV_AT_EPOCH":21120,"BSTAR":-0.0002726,"MEAN_MOTION_DOT":-8.5e-7,"MEAN_MOTION_DDOT":0},{"OBJECT_NAME":"ONEWEB-0287","OBJECT_ID":"2021-075C","EPOCH":"2025-12-21T04:08:04.230816","MEAN_MOTION":13.17652749,"ECCENTRICITY":0.0001816,"INCLINATION":87.9112,"RA_OF_ASC_NODE":41.2611,"ARG_OF_PERICENTER":114.9844,"MEAN_ANOMALY":245.1476,"EPHEMERIS_TYPE":0,"CLASSIFICATION_TYPE":"U","NORAD_CAT_ID":49077,"ELEMENT_SET_NO":999,"REV_AT_EPOCH":21018,"BSTAR":-6.7876e-6,"MEAN_MOTION_DOT":1.0e-7,"MEAN_MOTION_DDOT":0},{"OBJECT_NAME":"ONEWEB-0288","OBJECT_ID":"2021-075D","EPOCH":"2025-12-21T03:46:40.285344","MEAN_MOTION":13.12346884,"ECCENTRICITY":0.0001277,"INCLINATION":87.8957,"RA_OF_ASC_NODE":26.0188,"ARG_OF_PERICENTER":83.8987,"MEAN_ANOMALY":276.2287,"EPHEMERIS_TYPE":0,"CLASSIFICATION_TYPE":"U","NORAD_CAT_ID":49078,"ELEMENT_SET_NO":999,"REV_AT_EPOCH":21183,"BSTAR":0.0032919,"MEAN_MOTION_DOT":1.195e-5,"MEAN_MOTION_DDOT":0},{"OBJECT_NAME":"ONEWEB-0289","OBJECT_ID":"2021-075E","EPOCH":"2025-12-21T01:25:04.651968","MEAN_MOTION":13.17648726,"ECCENTRICITY":0.0001396,"INCLINATION":87.9104,"RA_OF_ASC_NODE":41.2985,"ARG_OF_PERICENTER":92.3642,"MEAN_ANOMALY":267.765,"EPHEMERIS_TYPE":0,"CLASSIFICATION_TYPE":"U","NORAD_CAT_ID":49079,"ELEMENT_SET_NO":999,"REV_AT_EPOCH":21074,"BSTAR":0.00024755,"MEAN_MOTION_DOT":1.09e-6,"MEAN_MOTION_DDOT":0}]
