ONEWEB-0273             
1 48991U 21060AA  25354.77430402  .00000031  00000+0  47310-4 0  9998
2 48991  87.9045 264.3075 0001726  68.8749 291.2567 13.16592131216116
ONEWEB-0274             
1 48992U 21060AB  25355.17962468  .00000091  00000+0  20570-3 0  9990
2 48992  87.9034 264.2485 0002004  78.1674 281.9682 13.16596693216201
ONEWEB-0275             
1 48993U 21060AC  25355.16854197 -.00000029  00000+0 -10973-3 0  9998
2 48993  87.9048 264.2222 0001786  72.2860 287.8465 13.16596411216138
ONEWEB-0276             
1 48994U 21060AD  25354.74580385  .00000112  00000+0  25997-3 0  9990
2 48994  87.9051 264.3057 0001557  67.0811 293.0485 13.16596516216096
ONEWEB-0277             
1 48995U 21060AE  25355.13846509  .00000101  00000+0  22998-3 0  9994
2 48995  87.9040 264.2511 0001732  72.5174 287.6146 13.16592482216133
ONEWEB-0278             
1 48996U 21060AF  25355.12895245  .00000025  00000+0  30703-4 0  9994
2 48996  87.9049 264.2261 0001428  76.4039 283.7251 13.16594089216263
ONEWEB-0279             
1 48997U 21060AG  25354.98489260  .00000086  00000+0  19174-3 0  9999
2 48997  87.9053 264.2528 0001937  68.4891 291.6447 13.16596520216174
ONEWEB-0280             
1 48998U 21060AH  25355.15192249  .00000075  00000+0  16250-3 0  9998
2 48998  87.9048 264.2256 0001482  63.2946 296.8336 13.16594588216138
ONEWEB-0281             
1 48999U 21060AJ  25355.00546480 -.00000034  00000+0 -12344-3 0  9990
2 48999  87.9048 264.2499 0001792  77.0914 283.0417 13.16592105216186
ONEWEB-0282             
1 49000U 21060AK  25355.18753147  .00000027  00000+0  36031-4 0  9993
2 49000  87.9042 264.2243 0001674  68.2950 291.8358 13.16596540216180
ONEWEB-0283             
1 49001U 21060AL  25355.17645995  .00000152  00000+0  36497-3 0  9998
2 49001  87.9047 264.2268 0001863  71.2161 288.9171 13.16593275216194
ONEWEB-0284             
1 49002U 21060AM  25355.17011846 -.00000037  00000+0 -13095-3 0  9994
2 49002  87.9051 264.2173 0001331  66.1870 293.9401 13.16597045216174
ONEWEB-0285             
1 49075U 21075A   25355.04582047 -.00000349  00000+0 -10041-2 0  9995
2 49075  87.8935  26.0432 0001693  94.4763 265.6559 13.12541507211849
ONEWEB-0286             
1 49076U 21075B   25355.10479078 -.00000085  00000+0 -27260-3 0  9991
2 49076  87.8928  26.0638 0001797 101.5425 258.5906 13.12421539211209
ONEWEB-0287             
1 49077U 21075C   25355.17227119  .00000010  00000+0 -67876-5 0  9992
2 49077  87.9112  41.2611 0001816 114.9844 245.1476 13.17652749210185
ONEWEB-0288             
1 49078U 21075D   25355.15741071  .00001195  00000+0  32919-2 0  9990
2 49078  87.8957  26.0188 0001277  83.8987 276.2287 13.12346884211838
ONEWEB-0289             
1 49079U 21075E   25355.05908162  .00000109  00000+0  24755-3 0  9990
2 49079  87.9104  41.2985 0001396  92.3642 267.7650 13.17648726210746
